{
  "type": "FeatureCollection",
  "features": [
    {
      "type": "Feature",
      "properties": {
        "norad_id": 41581,
        "name": "INTELSAT 31 (IS-31)",
        "group": "intelsat",
        "lat": 0.011619234490240557,
        "lon": 108.69993827747953,
        "alt_km": 35786.820342647785,
        "timestamp": "2025-12-21T07:34:34.208052+00:00",
        "meta_object_name": "INTELSAT 31 (IS-31)",
        "meta_object_id": "2016-035A",
        "meta_epoch": "2025-12-20T14:29:23.871264",
        "meta_mean_motion": 1.00271704,
        "meta_eccentricity": 0.00019976,
        "meta_inclination": 0.0288,
        "meta_ra_of_asc_node": 267.9464,
        "meta_arg_of_pericenter": 295.2319,
        "meta_mean_anomaly": 8.5584,
        "meta_ephemeris_type": 0,
        "meta_classification_type": "U",
        "meta_norad_cat_id": 41581,
        "meta_element_set_no": 999,
        "meta_rev_at_epoch": 3489,
        "meta_bstar": 0,
        "meta_mean_motion_dot": -1.27e-06,
        "meta_mean_motion_ddot": 0,
        "tle_line1": "1 41581U 16035A   25354.60374851 -.00000127  00000+0  00000+0 0  9996",
        "tle_line2": "2 41581   0.0288 267.9464 0001997 295.2319   8.5584  1.00271704 34890"
      },
      "geometry": {
        "type": "Point",
        "coordinates": [
          108.69993827747953,
          0.011619234490240557
        ]
      }
    },
    {
      "type": "Feature",
      "properties": {
        "norad_id": 41747,
        "name": "INTELSAT 36 (IS-36)",
        "group": "intelsat",
        "lat": -0.038735223134252435,
        "lon": -87.75085745448891,
        "alt_km": 35783.52430514391,
        "timestamp": "2025-12-21T07:34:34.208063+00:00",
        "meta_object_name": "INTELSAT 36 (IS-36)",
        "meta_object_id": "2016-053A",
        "meta_epoch": "2025-12-20T13:09:38.733408",
        "meta_mean_motion": 1.00271779,
        "meta_eccentricity": 0.00011803,
        "meta_inclination": 0.0114,
        "meta_ra_of_asc_node": 2.7331,
        "meta_arg_of_pericenter": 328.9558,
        "meta_mean_anomaly": 23.5927,
        "meta_ephemeris_type": 0,
        "meta_classification_type": "U",
        "meta_norad_cat_id": 41747,
        "meta_element_set_no": 999,
        "meta_rev_at_epoch": 3415,
        "meta_bstar": 0,
        "meta_mean_motion_dot": -1e-08,
        "meta_mean_motion_ddot": 0,
        "tle_line1": "1 41747U 16053A   25354.54836497 -.00000001  00000+0  00000+0 0  9993",
        "tle_line2": "2 41747   0.0114   2.7331 0001180 328.9558  23.5927  1.00271779 34152"
      },
      "geometry": {
        "type": "Point",
        "coordinates": [
          -87.75085745448891,
          -0.038735223134252435
        ]
      }
    },
    {
      "type": "Feature",
      "properties": {
        "norad_id": 41945,
        "name": "INTELSAT 32E (IS-32E)",
        "group": "intelsat",
        "lat": 0.03466319036159182,
        "lon": 160.59918682843815,
        "alt_km": 35786.98284432277,
        "timestamp": "2025-12-21T07:34:34.208073+00:00",
        "meta_object_name": "INTELSAT 32E (IS-32E)",
        "meta_object_id": "2017-007B",
        "meta_epoch": "2025-12-20T16:26:45.777984",
        "meta_mean_motion": 1.00271211,
        "meta_eccentricity": 4.749e-05,
        "meta_inclination": 0.029,
        "meta_ra_of_asc_node": 71.8228,
        "meta_arg_of_pericenter": 338.6559,
        "meta_mean_anomaly": 242.5522,
        "meta_ephemeris_type": 0,
        "meta_classification_type": "U",
        "meta_norad_cat_id": 41945,
        "meta_element_set_no": 999,
        "meta_rev_at_epoch": 3243,
        "meta_bstar": 0,
        "meta_mean_motion_dot": -2.46e-06,
        "meta_mean_motion_ddot": 0,
        "tle_line1": "1 41945U 17007B   25354.68525206 -.00000246  00000+0  00000+0 0  9992",
        "tle_line2": "2 41945   0.0290  71.8228 0000474 338.6559 242.5522  1.00271211 32437"
      },
      "geometry": {
        "type": "Point",
        "coordinates": [
          160.59918682843815,
          0.03466319036159182
        ]
      }
    },
    {
      "type": "Feature",
      "properties": {
        "norad_id": 42818,
        "name": "INTELSAT 35E (IS-35E)",
        "group": "intelsat",
        "lat": 0.018421026892029055,
        "lon": 169.26045670558753,
        "alt_km": 35788.16896272962,
        "timestamp": "2025-12-21T07:34:34.208083+00:00",
        "meta_object_name": "INTELSAT 35E (IS-35E)",
        "meta_object_id": "2017-041A",
        "meta_epoch": "2025-12-20T21:37:33.782016",
        "meta_mean_motion": 1.00270913,
        "meta_eccentricity": 0.0001849,
        "meta_inclination": 0.0174,
        "meta_ra_of_asc_node": 24.2941,
        "meta_arg_of_pericenter": 248.3288,
        "meta_mean_anomaly": 107.0078,
        "meta_ephemeris_type": 0,
        "meta_classification_type": "U",
        "meta_norad_cat_id": 42818,
        "meta_element_set_no": 999,
        "meta_rev_at_epoch": 3102,
        "meta_bstar": 0,
        "meta_mean_motion_dot": -2.15e-06,
        "meta_mean_motion_ddot": 0,
        "tle_line1": "1 42818U 17041A   25354.90108544 -.00000215  00000+0  00000+0 0  9993",
        "tle_line2": "2 42818   0.0174  24.2941 0001849 248.3288 107.0078  1.00270913 31028"
      },
      "geometry": {
        "type": "Point",
        "coordinates": [
          169.26045670558753,
          0.018421026892029055
        ]
      }
    },
    {
      "type": "Feature",
      "properties": {
        "norad_id": 42950,
        "name": "INTELSAT 37E (IS-37E)",
        "group": "intelsat",
        "lat": 0.0008074494334173064,
        "lon": -174.2584696381885,
        "alt_km": 35782.4086888851,
        "timestamp": "2025-12-21T07:34:34.208094+00:00",
        "meta_object_name": "INTELSAT 37E (IS-37E)",
        "meta_object_id": "2017-059A",
        "meta_epoch": "2025-12-20T21:42:18.326592",
        "meta_mean_motion": 1.00274265,
        "meta_eccentricity": 0.00028108,
        "meta_inclination": 0.0047,
        "meta_ra_of_asc_node": 88.6458,
        "meta_arg_of_pericenter": 172.4544,
        "meta_mean_anomaly": 136.206,
        "meta_ephemeris_type": 0,
        "meta_classification_type": "U",
        "meta_norad_cat_id": 42950,
        "meta_element_set_no": 999,
        "meta_rev_at_epoch": 3027,
        "meta_bstar": 0,
        "meta_mean_motion_dot": -1.17e-06,
        "meta_mean_motion_ddot": 0,
        "tle_line1": "1 42950U 17059A   25354.90437878 -.00000117  00000+0  00000+0 0  9995",
        "tle_line2": "2 42950   0.0047  88.6458 0002810 172.4544 136.2060  1.00274265 30277"
      },
      "geometry": {
        "type": "Point",
        "coordinates": [
          -174.2584696381885,
          0.0008074494334173064
        ]
      }
    },
    {
      "type": "Feature",
      "properties": {
        "norad_id": 43632,
        "name": "AZERSPACE 2 (IS-38)",
        "group": "intelsat",
        "lat": -0.02647578683778989,
        "lon": -111.12163682921766,
        "alt_km": 35781.63208715435,
        "timestamp": "2025-12-21T07:34:34.208104+00:00",
        "meta_object_name": "AZERSPACE 2 (IS-38)",
        "meta_object_id": "2018-074A",
        "meta_epoch": "2025-12-20T17:47:21.491808",
        "meta_mean_motion": 1.0027107,
        "meta_eccentricity": 0.00011604,
        "meta_inclination": 0.0009,
        "meta_ra_of_asc_node": 355.7052,
        "meta_arg_of_pericenter": 274.3723,
        "meta_mean_anomaly": 131.4463,
        "meta_ephemeris_type": 0,
        "meta_classification_type": "U",
        "meta_norad_cat_id": 43632,
        "meta_element_set_no": 999,
        "meta_rev_at_epoch": 2665,
        "meta_bstar": 0,
        "meta_mean_motion_dot": 1.6e-06,
        "meta_mean_motion_ddot": 0,
        "tle_line1": "1 43632U 18074A   25354.74122097  .00000160  00000+0  00000+0 0  9994",
        "tle_line2": "2 43632   0.0009 355.7052 0001160 274.3723 131.4463  1.00271070 26651"
      },
      "geometry": {
        "type": "Point",
        "coordinates": [
          -111.12163682921766,
          -0.02647578683778989
        ]
      }
    },
    {
      "type": "Feature",
      "properties": {
        "norad_id": 43633,
        "name": "HORIZONS-3E",
        "group": "intelsat",
        "lat": -9.810490272547027e-05,
        "lon": 12.747158685165932,
        "alt_km": 35784.78336422941,
        "timestamp": "2025-12-21T07:34:34.208115+00:00",
        "meta_object_name": "HORIZONS-3E",
        "meta_object_id": "2018-074B",
        "meta_epoch": "2025-12-20T14:02:03.988032",
        "meta_mean_motion": 1.00269138,
        "meta_eccentricity": 7.67e-05,
        "meta_inclination": 0.009,
        "meta_ra_of_asc_node": 233.4534,
        "meta_arg_of_pericenter": 88.2799,
        "meta_mean_anomaly": 147.176,
        "meta_ephemeris_type": 0,
        "meta_classification_type": "U",
        "meta_norad_cat_id": 43633,
        "meta_element_set_no": 999,
        "meta_rev_at_epoch": 2655,
        "meta_bstar": 0,
        "meta_mean_motion_dot": 0,
        "meta_mean_motion_ddot": 0,
        "tle_line1": "1 43633U 18074B   25354.58476838  .00000000  00000+0  00000+0 0  9995",
        "tle_line2": "2 43633   0.0090 233.4534 0000767  88.2799 147.1760  1.00269138 26551"
      },
      "geometry": {
        "type": "Point",
        "coordinates": [
          12.747158685165932,
          -9.810490272547027e-05
        ]
      }
    }
  ]
}